[{"OBJECT_NAME":"ONEWEB-0101","OBJECT_ID":"2021-025H","EPOCH":"2026-01-05T04:47:31.981344","MEAN_MOTION":13.13468301,"ECCENTRICITY":0.00015578,"INCLINATION":87.8986,"RA_OF_ASC_NODE":352.6236,"ARG_OF_PERICENTER":83.9654,"MEAN_ANOMALY":276.1653,"EPHEMERIS_TYPE":0,"CLASSIFICATION_TYPE":"U","NORAD_CAT_ID":48049,"ELEMENT_SET_NO":999,"REV_AT_EPOCH":23210,"BSTAR":-6.431863e-5,"MEAN_MOTION_DOT":-1.1e-7,"MEAN_MOTION_DDOT":0},{"OBJECT_NAME":"ONEWEB-0113","OBJECT_ID":"2021-025J","EPOCH":"2026-01-05T04:57:45.697824","MEAN_MOTION":13.1398599,"ECCENTRICITY":0.00019374,"INCLINATION":87.8992,"RA_OF_ASC_NODE":352.548,"ARG_OF_PERICENTER":84.8856,"MEAN_ANOMALY":275.2494,"EPHEMERIS_TYPE":0,"CLASSIFICATION_TYPE":"U","NORAD_CAT_ID":48050,"ELEMENT_SET_NO":999,"REV_AT_EPOCH":23220,"BSTAR":-0.00047042456,"MEAN_MOTION_DOT":-1.6e-6,"MEAN_MOTION_DDOT":0},{"OBJECT_NAME":"ONEWEB-0112","OBJECT_ID":"2021-025K","EPOCH":"2026-01-05T07:38:10.320864","MEAN_MOTION":13.13469473,"ECCENTRICITY":0.00017425,"INCLINATION":87.8994,"RA_OF_ASC_NODE":352.5661,"ARG_OF_PERICENTER":88.0995,"MEAN_ANOMALY":272.0334,"EPHEMERIS_TYPE":0,"CLASSIFICATION_TYPE":"U","NORAD_CAT_ID":48051,"ELEMENT_SET_NO":999,"REV_AT_EPOCH":23221,"BSTAR":0.00070462565,"MEAN_MOTION_DOT":2.7e-6,"MEAN_MOTION_DDOT":0},{"OBJECT_NAME":"ONEWEB-0156","OBJECT_ID":"2021-025L","EPOCH":"2026-01-05T00:31:35.570208","MEAN_MOTION":13.13470849,"ECCENTRICITY":0.00016747,"INCLINATION":87.8994,"RA_OF_ASC_NODE":352.6363,"ARG_OF_PERICENTER":89.7874,"MEAN_ANOMALY":270.3447,"EPHEMERIS_TYPE":0,"CLASSIFICATION_TYPE":"U","NORAD_CAT_ID":48052,"ELEMENT_SET_NO":999,"REV_AT_EPOCH":23215,"BSTAR":0.0010664813,"MEAN_MOTION_DOT":4.02e-6,"MEAN_MOTION_DDOT":0},{"OBJECT_NAME":"ONEWEB-0161","OBJECT_ID":"2021-025M","EPOCH":"2026-01-04T23:55:00.953184","MEAN_MOTION":13.13469219,"ECCENTRICITY":0.00016143,"INCLINATION":87.8984,"RA_OF_ASC_NODE":352.6552,"ARG_OF_PERICENTER":91.6051,"MEAN_ANOMALY":268.5263,"EPHEMERIS_TYPE":0,"CLASSIFICATION_TYPE":"U","NORAD_CAT_ID":48053,"ELEMENT_SET_NO":999,"REV_AT_EPOCH":23208,"BSTAR":-0.00069604506,"MEAN_MOTION_DOT":-2.41e-6,"MEAN_MOTION_DDOT":0},{"OBJECT_NAME":"ONEWEB-0158","OBJECT_ID":"2021-025N","EPOCH":"2026-01-05T04:25:36.314112","MEAN_MOTION":13.13468426,"ECCENTRICITY":0.00018226,"INCLINATION":87.8993,"RA_OF_ASC_NODE":352.6038,"ARG_OF_PERICENTER":74.7583,"MEAN_ANOMALY":285.3748,"EPHEMERIS_TYPE":0,"CLASSIFICATION_TYPE":"U","NORAD_CAT_ID":48054,"ELEMENT_SET_NO":999,"REV_AT_EPOCH":23223,"BSTAR":0.00080288715,"MEAN_MOTION_DOT":3.06e-6,"MEAN_MOTION_DDOT":0},{"OBJECT_NAME":"ONEWEB-0157","OBJECT_ID":"2021-025P","EPOCH":"2026-01-05T05:02:09.759552","MEAN_MOTION":13.13468601,"ECCENTRICITY":0.00014041,"INCLINATION":87.8992,"RA_OF_ASC_NODE":352.6044,"ARG_OF_PERICENTER":94.8647,"MEAN_ANOMALY":265.2642,"EPHEMERIS_TYPE":0,"CLASSIFICATION_TYPE":"U","NORAD_CAT_ID":48055,"ELEMENT_SET_NO":999,"REV_AT_EPOCH":23217,"BSTAR":-0.00069880304,"MEAN_MOTION_DOT":-2.42e-6,"MEAN_MOTION_DDOT":0},{"OBJECT_NAME":"ONEWEB-0162","OBJECT_ID":"2021-025Q","EPOCH":"2026-01-05T04:27:50.729184","MEAN_MOTION":13.13468381,"ECCENTRICITY":0.00017757,"INCLINATION":87.8995,"RA_OF_ASC_NODE":352.612,"ARG_OF_PERICENTER":90.0231,"MEAN_ANOMALY":270.1101,"EPHEMERIS_TYPE":0,"CLASSIFICATION_TYPE":"U","NORAD_CAT_ID":48056,"ELEMENT_SET_NO":999,"REV_AT_EPOCH":23214,"BSTAR":0.00058751077,"MEAN_MOTION_DOT":2.27e-6,"MEAN_MOTION_DDOT":0},{"OBJECT_NAME":"ONEWEB-0155","OBJECT_ID":"2021-025R","EPOCH":"2026-01-04T23:08:41.738208","MEAN_MOTION":13.1346969,"ECCENTRICITY":0.0001508,"INCLINATION":87.8991,"RA_OF_ASC_NODE":352.6603,"ARG_OF_PERICENTER":85.0708,"MEAN_ANOMALY":275.0593,"EPHEMERIS_TYPE":0,"CLASSIFICATION_TYPE":"U","NORAD_CAT_ID":48057,"ELEMENT_SET_NO":999,"REV_AT_EPOCH":23225,"BSTAR":0.00026559,"MEAN_MOTION_DOT":1.1e-6,"MEAN_MOTION_DDOT":0},{"OBJECT_NAME":"ONEWEB-0149","OBJECT_ID":"2021-025S","EPOCH":"2026-01-04T23:40:23.003904","MEAN_MOTION":13.13469151,"ECCENTRICITY":0.0001884,"INCLINATION":87.8988,"RA_OF_ASC_NODE":352.6495,"ARG_OF_PERICENTER":91.8143,"MEAN_ANOMALY":268.3202,"EPHEMERIS_TYPE":0,"CLASSIFICATION_TYPE":"U","NORAD_CAT_ID":48058,"ELEMENT_SET_NO":999,"REV_AT_EPOCH":23206,"BSTAR":-0.00052552,"MEAN_MOTION_DOT":-1.79e-6,"MEAN_MOTION_DDOT":0},{"OBJECT_NAME":"ONEWEB-0148","OBJECT_ID":"2021-025T","EPOCH":"2026-01-05T00:36:27.719712","MEAN_MOTION":13.13468473,"ECCENTRICITY":0.00019831,"INCLINATION":87.8984,"RA_OF_ASC_NODE":352.66,"ARG_OF_PERICENTER":103.406,"MEAN_ANOMALY":256.729,"EPHEMERIS_TYPE":0,"CLASSIFICATION_TYPE":"U","NORAD_CAT_ID":48059,"ELEMENT_SET_NO":999,"REV_AT_EPOCH":23219,"BSTAR":0.0011393055,"MEAN_MOTION_DOT":4.29e-6,"MEAN_MOTION_DDOT":0},{"OBJECT_NAME":"ONEWEB-0160","OBJECT_ID":"2021-025U","EPOCH":"2026-01-05T04:40:13.780416","MEAN_MOTION":13.13468454,"ECCENTRICITY":0.0002322,"INCLINATION":87.8984,"RA_OF_ASC_NODE":352.6234,"ARG_OF_PERICENTER":71.4678,"MEAN_ANOMALY":288.6703,"EPHEMERIS_TYPE":0,"CLASSIFICATION_TYPE":"U","NORAD_CAT_ID":48060,"ELEMENT_SET_NO":999,"REV_AT_EPOCH":23216,"BSTAR":0.00033671419,"MEAN_MOTION_DOT":1.36e-6,"MEAN_MOTION_DDOT":0},{"OBJECT_NAME":"ONEWEB-0163","OBJECT_ID":"2021-025V","EPOCH":"2026-01-05T00:38:54.246336","MEAN_MOTION":13.13470529,"ECCENTRICITY":0.0001463,"INCLINATION":87.899,"RA_OF_ASC_NODE":352.6453,"ARG_OF_PERICENTER":93.7152,"MEAN_ANOMALY":266.4145,"EPHEMERIS_TYPE":0,"CLASSIFICATION_TYPE":"U","NORAD_CAT_ID":48061,"ELEMENT_SET_NO":999,"REV_AT_EPOCH":23226,"BSTAR":0.0011342741,"MEAN_MOTION_DOT":4.27e-6,"MEAN_MOTION_DDOT":0},{"OBJECT_NAME":"ONEWEB-0159","OBJECT_ID":"2021-025W","EPOCH":"2026-01-05T00:26:42.488448","MEAN_MOTION":13.13468858,"ECCENTRICITY":0.00016451,"INCLINATION":87.8991,"RA_OF_ASC_NODE":352.6309,"ARG_OF_PERICENTER":93.809,"MEAN_ANOMALY":266.3227,"EPHEMERIS_TYPE":0,"CLASSIFICATION_TYPE":"U","NORAD_CAT_ID":48062,"ELEMENT_SET_NO":999,"REV_AT_EPOCH":23218,"BSTAR":0.00090423786,"MEAN_MOTION_DOT":3.43e-6,"MEAN_MOTION_DDOT":0},{"OBJECT_NAME":"ONEWEB-0164","OBJECT_ID":"2021-025X","EPOCH":"2026-01-04T23:59:53.232288","MEAN_MOTION":13.13470611,"ECCENTRICITY":0.00017426,"INCLINATION":87.8993,"RA_OF_ASC_NODE":352.6411,"ARG_OF_PERICENTER":82.9082,"MEAN_ANOMALY":277.2246,"EPHEMERIS_TYPE":0,"CLASSIFICATION_TYPE":"U","NORAD_CAT_ID":48063,"ELEMENT_SET_NO":999,"REV_AT_EPOCH":23216,"BSTAR":-0.00026573616,"MEAN_MOTION_DOT":-8.4e-7,"MEAN_MOTION_DDOT":0},{"OBJECT_NAME":"ONEWEB-0167","OBJECT_ID":"2021-025Y","EPOCH":"2026-01-05T00:40:07.710528","MEAN_MOTION":13.13470172,"ECCENTRICITY":0.00010479,"INCLINATION":87.8982,"RA_OF_ASC_NODE":352.6611,"ARG_OF_PERICENTER":70.8854,"MEAN_ANOMALY":289.2388,"EPHEMERIS_TYPE":0,"CLASSIFICATION_TYPE":"U","NORAD_CAT_ID":48064,"ELEMENT_SET_NO":999,"REV_AT_EPOCH":23215,"BSTAR":0.0011598502,"MEAN_MOTION_DOT":4.36e-6,"MEAN_MOTION_DDOT":0}]
